{
  "type": "FeatureCollection",
  "features": [
    {
      "type": "Feature",
      "properties": {
        "norad_id": 63632,
        "name": "SHENZHOU-20 (SZ-20)",
        "group": "stations",
        "lat": 10.449527171387054,
        "lon": 89.93139572672706,
        "alt_km": 386.6708118988772,
        "timestamp": "2025-12-02T15:49:05.967083+00:00",
        "meta_object_name": "SHENZHOU-20 (SZ-20)",
        "meta_object_id": "2025-082A",
        "meta_epoch": "2025-12-02T06:31:22.828800",
        "meta_mean_motion": 15.58517706,
        "meta_eccentricity": 0.00102589,
        "meta_inclination": 41.4672,
        "meta_ra_of_asc_node": 80.2264,
        "meta_arg_of_pericenter": 312.0297,
        "meta_mean_anomaly": 47.9667,
        "meta_ephemeris_type": 0,
        "meta_classification_type": "U",
        "meta_norad_cat_id": 63632,
        "meta_element_set_no": 999,
        "meta_rev_at_epoch": 25530,
        "meta_bstar": 0.00032073258,
        "meta_mean_motion_dot": 0.00025017,
        "meta_mean_motion_ddot": 0,
        "tle_line1": "1 63632U 25082A   25336.27179200  .00025017  00000+0  32073-3 0  9996",
        "tle_line2": "2 63632  41.4672  80.2264 0010258 312.0297  47.9667 15.58517706255307"
      },
      "geometry": {
        "type": "Point",
        "coordinates": [
          89.93139572672706,
          10.449527171387054
        ]
      }
    },
    {
      "type": "Feature",
      "properties": {
        "norad_id": 64751,
        "name": "PROGRESS-MS 31",
        "group": "stations",
        "lat": -49.61471451563519,
        "lon": 123.7306568870121,
        "alt_km": 423.38713825021387,
        "timestamp": "2025-12-02T15:49:05.967093+00:00",
        "meta_object_name": "PROGRESS-MS 31",
        "meta_object_id": "2025-146A",
        "meta_epoch": "2025-12-02T02:12:50.598720",
        "meta_mean_motion": 15.49237019,
        "meta_eccentricity": 0.00036389,
        "meta_inclination": 51.6314,
        "meta_ra_of_asc_node": 195.1903,
        "meta_arg_of_pericenter": 193.8265,
        "meta_mean_anomaly": 166.2625,
        "meta_ephemeris_type": 0,
        "meta_classification_type": "U",
        "meta_norad_cat_id": 64751,
        "meta_element_set_no": 999,
        "meta_rev_at_epoch": 675,
        "meta_bstar": 0.00017380747,
        "meta_mean_motion_dot": 9.217e-05,
        "meta_mean_motion_ddot": 0,
        "tle_line1": "1 64751U 25146A   25336.09225230  .00009217  00000+0  17381-3 0  9994",
        "tle_line2": "2 64751  51.6314 195.1903 0003638 193.8265 166.2625 15.49237019  6754"
      },
      "geometry": {
        "type": "Point",
        "coordinates": [
          123.7306568870121,
          -49.61471451563519
        ]
      }
    },
    {
      "type": "Feature",
      "properties": {
        "norad_id": 64786,
        "name": "TIANZHOU-9",
        "group": "stations",
        "lat": 10.449528014466216,
        "lon": 89.9313967347716,
        "alt_km": 386.67081191138186,
        "timestamp": "2025-12-02T15:49:05.967103+00:00",
        "meta_object_name": "TIANZHOU-9",
        "meta_object_id": "2025-149A",
        "meta_epoch": "2025-12-02T06:31:22.828800",
        "meta_mean_motion": 15.58517706,
        "meta_eccentricity": 0.00102589,
        "meta_inclination": 41.4672,
        "meta_ra_of_asc_node": 80.2264,
        "meta_arg_of_pericenter": 312.0297,
        "meta_mean_anomaly": 47.9667,
        "meta_ephemeris_type": 0,
        "meta_classification_type": "U",
        "meta_norad_cat_id": 64786,
        "meta_element_set_no": 999,
        "meta_rev_at_epoch": 25530,
        "meta_bstar": 0.00032073258,
        "meta_mean_motion_dot": 0.00025017,
        "meta_mean_motion_ddot": 0,
        "tle_line1": "1 64786U 25149A   25336.27179200  .00025017  00000+0  32073-3 0  9991",
        "tle_line2": "2 64786  41.4672  80.2264 0010258 312.0297  47.9667 15.58517706255308"
      },
      "geometry": {
        "type": "Point",
        "coordinates": [
          89.9313967347716,
          10.449528014466216
        ]
      }
    },
    {
      "type": "Feature",
      "properties": {
        "norad_id": 65077,
        "name": "CREW DRAGON 11",
        "group": "stations",
        "lat": -49.61471414768222,
        "lon": 123.73065879348432,
        "alt_km": 423.3871382952284,
        "timestamp": "2025-12-02T15:49:05.967113+00:00",
        "meta_object_name": "CREW DRAGON 11",
        "meta_object_id": "2025-166A",
        "meta_epoch": "2025-12-02T02:12:50.598720",
        "meta_mean_motion": 15.49237019,
        "meta_eccentricity": 0.00036389,
        "meta_inclination": 51.6314,
        "meta_ra_of_asc_node": 195.1903,
        "meta_arg_of_pericenter": 193.8265,
        "meta_mean_anomaly": 166.2625,
        "meta_ephemeris_type": 0,
        "meta_classification_type": "U",
        "meta_norad_cat_id": 65077,
        "meta_element_set_no": 999,
        "meta_rev_at_epoch": 214,
        "meta_bstar": 0.00017380747,
        "meta_mean_motion_dot": 9.217e-05,
        "meta_mean_motion_ddot": 0,
        "tle_line1": "1 65077U 25166A   25336.09225230  .00009217  00000+0  17381-3 0  9998",
        "tle_line2": "2 65077  51.6314 195.1903 0003638 193.8265 166.2625 15.49237019  2145"
      },
      "geometry": {
        "type": "Point",
        "coordinates": [
          123.73065879348432,
          -49.61471414768222
        ]
      }
    },
    {
      "type": "Feature",
      "properties": {
        "norad_id": 65304,
        "name": "DRAGON CRS-33",
        "group": "stations",
        "lat": -49.61471389011524,
        "lon": 123.73066012801435,
        "alt_km": 423.3871383267351,
        "timestamp": "2025-12-02T15:49:05.967127+00:00",
        "meta_object_name": "DRAGON CRS-33",
        "meta_object_id": "2025-186A",
        "meta_epoch": "2025-12-02T02:12:50.598720",
        "meta_mean_motion": 15.49237019,
        "meta_eccentricity": 0.00036389,
        "meta_inclination": 51.6314,
        "meta_ra_of_asc_node": 195.1903,
        "meta_arg_of_pericenter": 193.8265,
        "meta_mean_anomaly": 166.2625,
        "meta_ephemeris_type": 0,
        "meta_classification_type": "U",
        "meta_norad_cat_id": 65304,
        "meta_element_set_no": 999,
        "meta_rev_at_epoch": 11,
        "meta_bstar": 0.00017380747,
        "meta_mean_motion_dot": 9.217e-05,
        "meta_mean_motion_ddot": 0,
        "tle_line1": "1 65304U 25186A   25336.09225230  .00009217  00000+0  17381-3 0  9993",
        "tle_line2": "2 65304  51.6314 195.1903 0003638 193.8265 166.2625 15.49237019   113"
      },
      "geometry": {
        "type": "Point",
        "coordinates": [
          123.73066012801435,
          -49.61471389011524
        ]
      }
    },
    {
      "type": "Feature",
      "properties": {
        "norad_id": 65586,
        "name": "PROGRESS-MS 32",
        "group": "stations",
        "lat": -49.614713687740995,
        "lon": 123.7306611765745,
        "alt_km": 423.3871383514934,
        "timestamp": "2025-12-02T15:49:05.967138+00:00",
        "meta_object_name": "PROGRESS-MS 32",
        "meta_object_id": "2025-204A",
        "meta_epoch": "2025-12-02T02:12:50.598720",
        "meta_mean_motion": 15.49237019,
        "meta_eccentricity": 0.00036389,
        "meta_inclination": 51.6314,
        "meta_ra_of_asc_node": 195.1903,
        "meta_arg_of_pericenter": 193.8265,
        "meta_mean_anomaly": 166.2625,
        "meta_ephemeris_type": 0,
        "meta_classification_type": "U",
        "meta_norad_cat_id": 65586,
        "meta_element_set_no": 999,
        "meta_rev_at_epoch": 27,
        "meta_bstar": 0.00017380747,
        "meta_mean_motion_dot": 9.217e-05,
        "meta_mean_motion_ddot": 0,
        "tle_line1": "1 65586U 25204A   25336.09225230  .00009217  00000+0  17381-3 0  9996",
        "tle_line2": "2 65586  51.6314 195.1903 0003638 193.8265 166.2625 15.49237019   272"
      },
      "geometry": {
        "type": "Point",
        "coordinates": [
          123.7306611765745,
          -49.614713687740995
        ]
      }
    },
    {
      "type": "Feature",
      "properties": {
        "norad_id": 65616,
        "name": "CYGNUS NG-23",
        "group": "stations",
        "lat": -49.614713485366494,
        "lon": 123.7306622251359,
        "alt_km": 423.3871383762489,
        "timestamp": "2025-12-02T15:49:05.967149+00:00",
        "meta_object_name": "CYGNUS NG-23",
        "meta_object_id": "2025-208A",
        "meta_epoch": "2025-12-02T02:12:50.598720",
        "meta_mean_motion": 15.49237019,
        "meta_eccentricity": 0.00036389,
        "meta_inclination": 51.6314,
        "meta_ra_of_asc_node": 195.1903,
        "meta_arg_of_pericenter": 193.8265,
        "meta_mean_anomaly": 166.2625,
        "meta_ephemeris_type": 0,
        "meta_classification_type": "U",
        "meta_norad_cat_id": 65616,
        "meta_element_set_no": 999,
        "meta_rev_at_epoch": 22,
        "meta_bstar": 0.00017380747,
        "meta_mean_motion_dot": 9.217e-05,
        "meta_mean_motion_ddot": 0,
        "tle_line1": "1 65616U 25208A   25336.09225230  .00009217  00000+0  17381-3 0  9994",
        "tle_line2": "2 65616  51.6314 195.1903 0003638 193.8265 166.2625 15.49237019   221"
      },
      "geometry": {
        "type": "Point",
        "coordinates": [
          123.7306622251359,
          -49.614713485366494
        ]
      }
    }
  ]
}